<?xml version="1.0" encoding="UTF-8"?>
<ndm xmlns:xsi="http://www.w3.org/2001/XMLSchema-instance" xsi:noNamespaceSchemaLocation="https://sanaregistry.org/r/ndmxml_unqualified/ndmxml-2.0.0-master-2.0.xsd">
<omm id="CCSDS_OMM_VERS" version="2.0">
<header><CREATION_DATE/><ORIGINATOR/></header><body><segment><metadata><OBJECT_NAME>ONEWEB-0473</OBJECT_NAME><OBJECT_ID>2022-012AH</OBJECT_ID><CENTER_NAME>EARTH</CENTER_NAME><REF_FRAME>TEME</REF_FRAME><TIME_SYSTEM>UTC</TIME_SYSTEM><MEAN_ELEMENT_THEORY>SGP4</MEAN_ELEMENT_THEORY></metadata><data><meanElements><EPOCH>2024-02-07T11:24:46.153152</EPOCH><MEAN_MOTION>13.10369926</MEAN_MOTION><ECCENTRICITY>.0001673</ECCENTRICITY><INCLINATION>87.8914</INCLINATION><RA_OF_ASC_NODE>207.2349</RA_OF_ASC_NODE><ARG_OF_PERICENTER>95.9831</ARG_OF_PERICENTER><MEAN_ANOMALY>264.1487</MEAN_ANOMALY></meanElements><tleParameters><EPHEMERIS_TYPE>0</EPHEMERIS_TYPE><CLASSIFICATION_TYPE>U</CLASSIFICATION_TYPE><NORAD_CAT_ID>51653</NORAD_CAT_ID><ELEMENT_SET_NO>999</ELEMENT_SET_NO><REV_AT_EPOCH>9788</REV_AT_EPOCH><BSTAR>-.88196E-4</BSTAR><MEAN_MOTION_DOT>-.18E-6</MEAN_MOTION_DOT><MEAN_MOTION_DDOT>0</MEAN_MOTION_DDOT></tleParameters></data></segment></body></omm>
<omm id="CCSDS_OMM_VERS" version="2.0">
<header><CREATION_DATE/><ORIGINATOR/></header><body><segment><metadata><OBJECT_NAME>ONEWEB-0474</OBJECT_NAME><OBJECT_ID>2022-012AJ</OBJECT_ID><CENTER_NAME>EARTH</CENTER_NAME><REF_FRAME>TEME</REF_FRAME><TIME_SYSTEM>UTC</TIME_SYSTEM><MEAN_ELEMENT_THEORY>SGP4</MEAN_ELEMENT_THEORY></metadata><data><meanElements><EPOCH>2024-02-07T11:13:04.943712</EPOCH><MEAN_MOTION>13.10371211</MEAN_MOTION><ECCENTRICITY>.0001835</ECCENTRICITY><INCLINATION>87.8906</INCLINATION><RA_OF_ASC_NODE>207.2459</RA_OF_ASC_NODE><ARG_OF_PERICENTER>96.4715</ARG_OF_PERICENTER><MEAN_ANOMALY>263.6621</MEAN_ANOMALY></meanElements><tleParameters><EPHEMERIS_TYPE>0</EPHEMERIS_TYPE><CLASSIFICATION_TYPE>U</CLASSIFICATION_TYPE><NORAD_CAT_ID>51654</NORAD_CAT_ID><ELEMENT_SET_NO>999</ELEMENT_SET_NO><REV_AT_EPOCH>9786</REV_AT_EPOCH><BSTAR>.10062E-2</BSTAR><MEAN_MOTION_DOT>.364E-5</MEAN_MOTION_DOT><MEAN_MOTION_DDOT>0</MEAN_MOTION_DDOT></tleParameters></data></segment></body></omm>
<omm id="CCSDS_OMM_VERS" version="2.0">
<header><CREATION_DATE/><ORIGINATOR/></header><body><segment><metadata><OBJECT_NAME>ONEWEB-0475</OBJECT_NAME><OBJECT_ID>2022-012AK</OBJECT_ID><CENTER_NAME>EARTH</CENTER_NAME><REF_FRAME>TEME</REF_FRAME><TIME_SYSTEM>UTC</TIME_SYSTEM><MEAN_ELEMENT_THEORY>SGP4</MEAN_ELEMENT_THEORY></metadata><data><meanElements><EPOCH>2024-02-07T09:50:36.940992</EPOCH><MEAN_MOTION>13.17621788</MEAN_MOTION><ECCENTRICITY>.0002114</ECCENTRICITY><INCLINATION>87.9244</INCLINATION><RA_OF_ASC_NODE>177.0705</RA_OF_ASC_NODE><ARG_OF_PERICENTER>111.6725</ARG_OF_PERICENTER><MEAN_ANOMALY>248.4631</MEAN_ANOMALY></meanElements><tleParameters><EPHEMERIS_TYPE>0</EPHEMERIS_TYPE><CLASSIFICATION_TYPE>U</CLASSIFICATION_TYPE><NORAD_CAT_ID>51655</NORAD_CAT_ID><ELEMENT_SET_NO>999</ELEMENT_SET_NO><REV_AT_EPOCH>10162</REV_AT_EPOCH><BSTAR>.15055E-1</BSTAR><MEAN_MOTION_DOT>.586E-4</MEAN_MOTION_DOT><MEAN_MOTION_DDOT>0</MEAN_MOTION_DDOT></tleParameters></data></segment></body></omm>
<omm id="CCSDS_OMM_VERS" version="2.0">
<header><CREATION_DATE/><ORIGINATOR/></header><body><segment><metadata><OBJECT_NAME>ONEWEB-0490</OBJECT_NAME><OBJECT_ID>2022-138A</OBJECT_ID><CENTER_NAME>EARTH</CENTER_NAME><REF_FRAME>TEME</REF_FRAME><TIME_SYSTEM>UTC</TIME_SYSTEM><MEAN_ELEMENT_THEORY>SGP4</MEAN_ELEMENT_THEORY></metadata><data><meanElements><EPOCH>2024-02-07T11:05:45.846816</EPOCH><MEAN_MOTION>13.19724036</MEAN_MOTION><ECCENTRICITY>.0002016</ECCENTRICITY><INCLINATION>87.9178</INCLINATION><RA_OF_ASC_NODE>116.3153</RA_OF_ASC_NODE><ARG_OF_PERICENTER>99.9927</ARG_OF_PERICENTER><MEAN_ANOMALY>260.1433</MEAN_ANOMALY></meanElements><tleParameters><EPHEMERIS_TYPE>0</EPHEMERIS_TYPE><CLASSIFICATION_TYPE>U</CLASSIFICATION_TYPE><NORAD_CAT_ID>54113</NORAD_CAT_ID><ELEMENT_SET_NO>999</ELEMENT_SET_NO><REV_AT_EPOCH>6417</REV_AT_EPOCH><BSTAR>.18356E-3</BSTAR><MEAN_MOTION_DOT>.86E-6</MEAN_MOTION_DOT><MEAN_MOTION_DDOT>0</MEAN_MOTION_DDOT></tleParameters></data></segment></body></omm>
<omm id="CCSDS_OMM_VERS" version="2.0">
<header><CREATION_DATE/><ORIGINATOR/></header><body><segment><metadata><OBJECT_NAME>ONEWEB-0492</OBJECT_NAME><OBJECT_ID>2022-138B</OBJECT_ID><CENTER_NAME>EARTH</CENTER_NAME><REF_FRAME>TEME</REF_FRAME><TIME_SYSTEM>UTC</TIME_SYSTEM><MEAN_ELEMENT_THEORY>SGP4</MEAN_ELEMENT_THEORY></metadata><data><meanElements><EPOCH>2024-02-06T17:30:25.142688</EPOCH><MEAN_MOTION>13.19731036</MEAN_MOTION><ECCENTRICITY>.0002171</ECCENTRICITY><INCLINATION>87.9185</INCLINATION><RA_OF_ASC_NODE>116.4569</RA_OF_ASC_NODE><ARG_OF_PERICENTER>95.2327</ARG_OF_PERICENTER><MEAN_ANOMALY>264.9053</MEAN_ANOMALY></meanElements><tleParameters><EPHEMERIS_TYPE>0</EPHEMERIS_TYPE><CLASSIFICATION_TYPE>U</CLASSIFICATION_TYPE><NORAD_CAT_ID>54114</NORAD_CAT_ID><ELEMENT_SET_NO>999</ELEMENT_SET_NO><REV_AT_EPOCH>6321</REV_AT_EPOCH><BSTAR>.6468E-4</BSTAR><MEAN_MOTION_DOT>.39E-6</MEAN_MOTION_DOT><MEAN_MOTION_DDOT>0</MEAN_MOTION_DDOT></tleParameters></data></segment></body></omm>
<omm id="CCSDS_OMM_VERS" version="2.0">
<header><CREATION_DATE/><ORIGINATOR/></header><body><segment><metadata><OBJECT_NAME>ONEWEB-0495</OBJECT_NAME><OBJECT_ID>2022-138C</OBJECT_ID><CENTER_NAME>EARTH</CENTER_NAME><REF_FRAME>TEME</REF_FRAME><TIME_SYSTEM>UTC</TIME_SYSTEM><MEAN_ELEMENT_THEORY>SGP4</MEAN_ELEMENT_THEORY></metadata><data><meanElements><EPOCH>2024-02-07T11:10:19.323552</EPOCH><MEAN_MOTION>13.19726497</MEAN_MOTION><ECCENTRICITY>.0002341</ECCENTRICITY><INCLINATION>87.9186</INCLINATION><RA_OF_ASC_NODE>116.3222</RA_OF_ASC_NODE><ARG_OF_PERICENTER>100.5076</ARG_OF_PERICENTER><MEAN_ANOMALY>259.6320</MEAN_ANOMALY></meanElements><tleParameters><EPHEMERIS_TYPE>0</EPHEMERIS_TYPE><CLASSIFICATION_TYPE>U</CLASSIFICATION_TYPE><NORAD_CAT_ID>54115</NORAD_CAT_ID><ELEMENT_SET_NO>999</ELEMENT_SET_NO><REV_AT_EPOCH>6416</REV_AT_EPOCH><BSTAR>.24238E-3</BSTAR><MEAN_MOTION_DOT>.11E-5</MEAN_MOTION_DOT><MEAN_MOTION_DDOT>0</MEAN_MOTION_DDOT></tleParameters></data></segment></body></omm>
<omm id="CCSDS_OMM_VERS" version="2.0">
<header><CREATION_DATE/><ORIGINATOR/></header><body><segment><metadata><OBJECT_NAME>ONEWEB-0497</OBJECT_NAME><OBJECT_ID>2022-138D</OBJECT_ID><CENTER_NAME>EARTH</CENTER_NAME><REF_FRAME>TEME</REF_FRAME><TIME_SYSTEM>UTC</TIME_SYSTEM><MEAN_ELEMENT_THEORY>SGP4</MEAN_ELEMENT_THEORY></metadata><data><meanElements><EPOCH>2024-02-06T17:16:45.541056</EPOCH><MEAN_MOTION>13.19725951</MEAN_MOTION><ECCENTRICITY>.0001989</ECCENTRICITY><INCLINATION>87.9181</INCLINATION><RA_OF_ASC_NODE>116.4642</RA_OF_ASC_NODE><ARG_OF_PERICENTER>99.5568</ARG_OF_PERICENTER><MEAN_ANOMALY>260.5790</MEAN_ANOMALY></meanElements><tleParameters><EPHEMERIS_TYPE>0</EPHEMERIS_TYPE><CLASSIFICATION_TYPE>U</CLASSIFICATION_TYPE><NORAD_CAT_ID>54116</NORAD_CAT_ID><ELEMENT_SET_NO>999</ELEMENT_SET_NO><REV_AT_EPOCH>6318</REV_AT_EPOCH><BSTAR>.14001E-3</BSTAR><MEAN_MOTION_DOT>.69E-6</MEAN_MOTION_DOT><MEAN_MOTION_DDOT>0</MEAN_MOTION_DDOT></tleParameters></data></segment></body></omm>
<omm id="CCSDS_OMM_VERS" version="2.0">
<header><CREATION_DATE/><ORIGINATOR/></header><body><segment><metadata><OBJECT_NAME>ONEWEB-0499</OBJECT_NAME><OBJECT_ID>2022-138E</OBJECT_ID><CENTER_NAME>EARTH</CENTER_NAME><REF_FRAME>TEME</REF_FRAME><TIME_SYSTEM>UTC</TIME_SYSTEM><MEAN_ELEMENT_THEORY>SGP4</MEAN_ELEMENT_THEORY></metadata><data><meanElements><EPOCH>2024-02-07T11:03:29.782368</EPOCH><MEAN_MOTION>13.19724272</MEAN_MOTION><ECCENTRICITY>.0002265</ECCENTRICITY><INCLINATION>87.9184</INCLINATION><RA_OF_ASC_NODE>116.3125</RA_OF_ASC_NODE><ARG_OF_PERICENTER>116.1236</ARG_OF_PERICENTER><MEAN_ANOMALY>244.0129</MEAN_ANOMALY></meanElements><tleParameters><EPHEMERIS_TYPE>0</EPHEMERIS_TYPE><CLASSIFICATION_TYPE>U</CLASSIFICATION_TYPE><NORAD_CAT_ID>54117</NORAD_CAT_ID><ELEMENT_SET_NO>999</ELEMENT_SET_NO><REV_AT_EPOCH>6416</REV_AT_EPOCH><BSTAR>.20166E-3</BSTAR><MEAN_MOTION_DOT>.94E-6</MEAN_MOTION_DOT><MEAN_MOTION_DDOT>0</MEAN_MOTION_DDOT></tleParameters></data></segment></body></omm>
<omm id="CCSDS_OMM_VERS" version="2.0">
<header><CREATION_DATE/><ORIGINATOR/></header><body><segment><metadata><OBJECT_NAME>ONEWEB-0500</OBJECT_NAME><OBJECT_ID>2022-138F</OBJECT_ID><CENTER_NAME>EARTH</CENTER_NAME><REF_FRAME>TEME</REF_FRAME><TIME_SYSTEM>UTC</TIME_SYSTEM><MEAN_ELEMENT_THEORY>SGP4</MEAN_ELEMENT_THEORY></metadata><data><meanElements><EPOCH>2024-02-06T16:56:17.492064</EPOCH><MEAN_MOTION>13.19726681</MEAN_MOTION><ECCENTRICITY>.0001913</ECCENTRICITY><INCLINATION>87.9184</INCLINATION><RA_OF_ASC_NODE>116.4626</RA_OF_ASC_NODE><ARG_OF_PERICENTER>99.5961</ARG_OF_PERICENTER><MEAN_ANOMALY>260.5388</MEAN_ANOMALY></meanElements><tleParameters><EPHEMERIS_TYPE>0</EPHEMERIS_TYPE><CLASSIFICATION_TYPE>U</CLASSIFICATION_TYPE><NORAD_CAT_ID>54118</NORAD_CAT_ID><ELEMENT_SET_NO>999</ELEMENT_SET_NO><REV_AT_EPOCH>6320</REV_AT_EPOCH><BSTAR>.77183E-4</BSTAR><MEAN_MOTION_DOT>.44E-6</MEAN_MOTION_DOT><MEAN_MOTION_DDOT>0</MEAN_MOTION_DDOT></tleParameters></data></segment></body></omm>

</ndm>
